[{"OBJECT_NAME":"NUSAT-41 (C PAYNE-G)","OBJECT_ID":"2023-084N","EPOCH":"2026-03-09T21:55:54.837696","MEAN_MOTION":15.29680045,"ECCENTRICITY":0.00062175,"INCLINATION":97.5351,"RA_OF_ASC_NODE":204.1011,"ARG_OF_PERICENTER":322.2064,"MEAN_ANOMALY":37.8738,"EPHEMERIS_TYPE":0,"CLASSIFICATION_TYPE":"U","NORAD_CAT_ID":56944,"ELEMENT_SET_NO":999,"REV_AT_EPOCH":15260,"BSTAR":0.00059912824,"MEAN_MOTION_DOT":0.0001718,"MEAN_MOTION_DDOT":0},{"OBJECT_NAME":"STARLINK-33678","OBJECT_ID":"2025-071S","EPOCH":"2026-03-09T12:32:56.984928","MEAN_MOTION":15.30192299,"ECCENTRICITY":0.00010644,"INCLINATION":53.16,"RA_OF_ASC_NODE":140.7135,"ARG_OF_PERICENTER":61.6042,"MEAN_ANOMALY":298.5066,"EPHEMERIS_TYPE":0,"CLASSIFICATION_TYPE":"U","NORAD_CAT_ID":63509,"ELEMENT_SET_NO":999,"REV_AT_EPOCH":5247,"BSTAR":0.00076480454,"MEAN_MOTION_DOT":0.00022355,"MEAN_MOTION_DDOT":0}]
